start=new Date('2023-02-26T00:00:00.000Z').valueOf();
sats=[{"MEAN_ELEMENT_THEORY":"SGP4","DECAY_DATE":null,"TIME_SYSTEM":"UTC","NORAD_CAT_ID":"48317","SEMIMAJOR_AXIS":"6925.238","ELEMENT_SET_NO":"999","MEAN_MOTION_DOT":"0.00023328","MEAN_MOTION":"15.06436044","MEAN_ANOMALY":"267.5796","PERIOD":"95.590","INCLINATION":"53.0571","REV_AT_EPOCH":"10109","OBJECT_TYPE":"PAYLOAD","RA_OF_ASC_NODE":"27.7757","BSTAR":"0.00157830000000","EPHEMERIS_TYPE":"0","ECCENTRICITY":"0.00011960","ARG_OF_PERICENTER":"92.5330","SITE":"AFETR","MEAN_MOTION_DDOT":"0.0000000000000","OBJECT_NAME":"STARLINK-2513","APOAPSIS":"547.931","EPOCH":"2023-02-25T05:02:11.379552","COUNTRY_CODE":"US","TLE_LINE1":"1 48317U 21036AT  23056.20985393  .00023328  00000-0  15783-2 0  9994","CLASSIFICATION_TYPE":"U","FILE":"3837605","GP_ID":"226856728","LAUNCH_DATE":"2021-04-29","RCS_SIZE":"LARGE","OBJECT_ID":"2021-036AT","CENTER_NAME":"EARTH","PERIAPSIS":"546.275","REF_FRAME":"TEME","TLE_LINE2":"2 48317  53.0571  27.7757 0001196  92.5330 267.5796 15.06436044101096"},{"GP_ID":"226912566","LAUNCH_DATE":"2021-04-29","RCS_SIZE":"LARGE","OBJECT_ID":"2021-036AU","CENTER_NAME":"EARTH","PERIAPSIS":"546.365","REF_FRAME":"TEME","TLE_LINE2":"2 48318  53.0548  35.7343 0001281  90.8920 269.2216 15.06387378101026","EPOCH":"2023-02-25T15:59:02.028480","COUNTRY_CODE":"US","TLE_LINE1":"1 48318U 21036AU  23056.66599570 -.00003013  00000-0 -18356-3 0  9994","CLASSIFICATION_TYPE":"U","FILE":"3839003","RA_OF_ASC_NODE":"35.7343","OBJECT_TYPE":"PAYLOAD","BSTAR":"-0.00018356000000","EPHEMERIS_TYPE":"0","ECCENTRICITY":"0.00012810","ARG_OF_PERICENTER":"90.8920","MEAN_MOTION_DDOT":"0.0000000000000","SITE":"AFETR","OBJECT_NAME":"STARLINK-2509","APOAPSIS":"548.139","MEAN_ELEMENT_THEORY":"SGP4","TIME_SYSTEM":"UTC","DECAY_DATE":null,"SEMIMAJOR_AXIS":"6925.387","NORAD_CAT_ID":"48318","ELEMENT_SET_NO":"999","MEAN_MOTION_DOT":"-0.00003013","MEAN_MOTION":"15.06387378","MEAN_ANOMALY":"269.2216","PERIOD":"95.593","INCLINATION":"53.0548","REV_AT_EPOCH":"10102"},{"EPOCH":"2023-02-25T15:52:21.096192","COUNTRY_CODE":"US","TLE_LINE1":"1 48319U 21036AV  23056.66135528  .00001987  00000-0  15219-3 0  9995","CLASSIFICATION_TYPE":"U","FILE":"3839003","RCS_SIZE":"LARGE","GP_ID":"226911320","LAUNCH_DATE":"2021-04-29","CENTER_NAME":"EARTH","OBJECT_ID":"2021-036AV","PERIAPSIS":"545.433","REF_FRAME":"TEME","TLE_LINE2":"2 48319  53.0539  35.7481 0002489  87.7671 272.3603 15.06418643101024","DECAY_DATE":null,"TIME_SYSTEM":"UTC","MEAN_ELEMENT_THEORY":"SGP4","MEAN_MOTION_DOT":"0.00001987","MEAN_MOTION":"15.06418643","SEMIMAJOR_AXIS":"6925.291","NORAD_CAT_ID":"48319","ELEMENT_SET_NO":"999","PERIOD":"95.591","MEAN_ANOMALY":"272.3603","REV_AT_EPOCH":"10102","INCLINATION":"53.0539","ECCENTRICITY":"0.00024890","EPHEMERIS_TYPE":"0","OBJECT_TYPE":"PAYLOAD","RA_OF_ASC_NODE":"35.7481","BSTAR":"0.00015219000000","OBJECT_NAME":"STARLINK-2512","ARG_OF_PERICENTER":"87.7671","SITE":"AFETR","MEAN_MOTION_DDOT":"0.0000000000000","APOAPSIS":"548.880"},{"PERIAPSIS":"545.649","REF_FRAME":"TEME","TLE_LINE2":"2 48320  53.0547  35.7675 0002167  91.0322 269.0915 15.06420916101029","GP_ID":"226911570","LAUNCH_DATE":"2021-04-29","RCS_SIZE":"LARGE","OBJECT_ID":"2021-036AW","CENTER_NAME":"EARTH","CLASSIFICATION_TYPE":"U","FILE":"3839003","EPOCH":"2023-02-25T15:48:24.740352","COUNTRY_CODE":"US","TLE_LINE1":"1 48320U 21036AW  23056.65861968  .00015890  00000-0  10826-2 0  9996","APOAPSIS":"548.650","RA_OF_ASC_NODE":"35.7675","OBJECT_TYPE":"PAYLOAD","BSTAR":"0.00108260000000","EPHEMERIS_TYPE":"0","ECCENTRICITY":"0.00021670","ARG_OF_PERICENTER":"91.0322","MEAN_MOTION_DDOT":"0.0000000000000","SITE":"AFETR","OBJECT_NAME":"STARLINK-2029","MEAN_ANOMALY":"269.0915","PERIOD":"95.591","INCLINATION":"53.0547","REV_AT_EPOCH":"10102","MEAN_ELEMENT_THEORY":"SGP4","DECAY_DATE":null,"TIME_SYSTEM":"UTC","NORAD_CAT_ID":"48320","SEMIMAJOR_AXIS":"6925.284","ELEMENT_SET_NO":"999","MEAN_MOTION_DOT":"0.00015890","MEAN_MOTION":"15.06420916"},{"RCS_SIZE":"LARGE","GP_ID":"226912319","LAUNCH_DATE":"2021-04-29","CENTER_NAME":"EARTH","OBJECT_ID":"2021-036AX","PERIAPSIS":"545.621","REF_FRAME":"TEME","TLE_LINE2":"2 48321  53.0546  35.7862 0002336  90.7658 269.3598 15.06391684101022","EPOCH":"2023-02-25T15:43:07.566816","COUNTRY_CODE":"US","TLE_LINE1":"1 48321U 21036AX  23056.65494869 -.00002269  00000-0 -13348-3 0  9990","FILE":"3839003","CLASSIFICATION_TYPE":"U","ECCENTRICITY":"0.00023360","EPHEMERIS_TYPE":"0","OBJECT_TYPE":"PAYLOAD","RA_OF_ASC_NODE":"35.7862","BSTAR":"-0.00013348000000","OBJECT_NAME":"STARLINK-2457","ARG_OF_PERICENTER":"90.7658","MEAN_MOTION_DDOT":"0.0000000000000","SITE":"AFETR","APOAPSIS":"548.857","TIME_SYSTEM":"UTC","DECAY_DATE":null,"MEAN_ELEMENT_THEORY":"SGP4","MEAN_MOTION_DOT":"-0.00002269","MEAN_MOTION":"15.06391684","SEMIMAJOR_AXIS":"6925.374","NORAD_CAT_ID":"48321","ELEMENT_SET_NO":"999","PERIOD":"95.593","MEAN_ANOMALY":"269.3598","REV_AT_EPOCH":"10102","INCLINATION":"53.0546"},{"FILE":"3839003","CLASSIFICATION_TYPE":"U","COUNTRY_CODE":"US","EPOCH":"2023-02-25T15:37:48.316224","TLE_LINE1":"1 48322U 21036AY  23056.65125366  .00002840  00000-0  20952-3 0  9996","REF_FRAME":"TEME","PERIAPSIS":"545.594","TLE_LINE2":"2 48322  53.0542  35.8029 0002382  90.5890 269.5372 15.06390133101022","LAUNCH_DATE":"2021-04-29","GP_ID":"226913067","RCS_SIZE":"LARGE","OBJECT_ID":"2021-036AY","CENTER_NAME":"EARTH","MEAN_ANOMALY":"269.5372","PERIOD":"95.593","INCLINATION":"53.0542","REV_AT_EPOCH":"10102","MEAN_ELEMENT_THEORY":"SGP4","TIME_SYSTEM":"UTC","DECAY_DATE":null,"ELEMENT_SET_NO":"999","SEMIMAJOR_AXIS":"6925.379","NORAD_CAT_ID":"48322","MEAN_MOTION":"15.06390133","MEAN_MOTION_DOT":"0.00002840","APOAPSIS":"548.893","BSTAR":"0.00020952000000","OBJECT_TYPE":"PAYLOAD","RA_OF_ASC_NODE":"35.8029","EPHEMERIS_TYPE":"0","ECCENTRICITY":"0.00023820","MEAN_MOTION_DDOT":"0.0000000000000","SITE":"AFETR","ARG_OF_PERICENTER":"90.5890","OBJECT_NAME":"STARLINK-2477"},{"EPHEMERIS_TYPE":"0","ECCENTRICITY":"0.00018430","OBJECT_TYPE":"PAYLOAD","RA_OF_ASC_NODE":"35.8143","BSTAR":"0.00046182000000","OBJECT_NAME":"STARLINK-2515","ARG_OF_PERICENTER":"88.3422","MEAN_MOTION_DDOT":"0.0000000000000","SITE":"AFETR","APOAPSIS":"548.421","TIME_SYSTEM":"UTC","DECAY_DATE":null,"MEAN_ELEMENT_THEORY":"SGP4","MEAN_MOTION_DOT":"0.00006608","MEAN_MOTION":"15.06422591","SEMIMAJOR_AXIS":"6925.279","NORAD_CAT_ID":"48323","ELEMENT_SET_NO":"999","PERIOD":"95.591","MEAN_ANOMALY":"271.7779","REV_AT_EPOCH":"10102","INCLINATION":"53.0556","RCS_SIZE":"LARGE","GP_ID":"226911821","LAUNCH_DATE":"2021-04-29","CENTER_NAME":"EARTH","OBJECT_ID":"2021-036AZ","PERIAPSIS":"545.868","REF_FRAME":"TEME","TLE_LINE2":"2 48323  53.0556  35.8143 0001843  88.3422 271.7779 15.06422591101022","EPOCH":"2023-02-25T15:32:28.095360","COUNTRY_CODE":"US","TLE_LINE1":"1 48323U 21036AZ  23056.64754740  .00006608  00000-0  46182-3 0  9999","CLASSIFICATION_TYPE":"U","FILE":"3839003"},{"TIME_SYSTEM":"UTC","DECAY_DATE":null,"MEAN_ELEMENT_THEORY":"SGP4","MEAN_MOTION":"15.06413606","MEAN_MOTION_DOT":"0.00007043","ELEMENT_SET_NO":"999","NORAD_CAT_ID":"48324","SEMIMAJOR_AXIS":"6925.307","PERIOD":"95.591","MEAN_ANOMALY":"277.1450","REV_AT_EPOCH":"10101","INCLINATION":"53.0550","ECCENTRICITY":"0.00022590","EPHEMERIS_TYPE":"0","BSTAR":"0.00049109000000","RA_OF_ASC_NODE":"35.8293","OBJECT_TYPE":"PAYLOAD","OBJECT_NAME":"STARLINK-2527","SITE":"AFETR","MEAN_MOTION_DDOT":"0.0000000000000","ARG_OF_PERICENTER":"82.9795","APOAPSIS":"548.736","COUNTRY_CODE":"US","EPOCH":"2023-02-25T15:25:49.226304","TLE_LINE1":"1 48324U 21036BA  23056.64293086  .00007043  00000-0  49109-3 0  9997","CLASSIFICATION_TYPE":"U","FILE":"3839003","RCS_SIZE":"LARGE","LAUNCH_DATE":"2021-04-29","GP_ID":"226912071","CENTER_NAME":"EARTH","OBJECT_ID":"2021-036BA","REF_FRAME":"TEME","PERIAPSIS":"545.607","TLE_LINE2":"2 48324  53.0550  35.8293 0002259  82.9795 277.1450 15.06413606101010"},{"TLE_LINE2":"2 48325  53.0552  35.8498 0002309  79.8488 280.2762 15.06409872101022","REF_FRAME":"TEME","PERIAPSIS":"545.584","OBJECT_ID":"2021-036BB","CENTER_NAME":"EARTH","LAUNCH_DATE":"2021-04-29","GP_ID":"226912820","RCS_SIZE":"LARGE","FILE":"3839003","CLASSIFICATION_TYPE":"U","TLE_LINE1":"1 48325U 21036BB  23056.64019357  .00005446  00000-0  38410-3 0  9993","COUNTRY_CODE":"US","EPOCH":"2023-02-25T15:21:52.724448","APOAPSIS":"548.782","SITE":"AFETR","MEAN_MOTION_DDOT":"0.0000000000000","ARG_OF_PERICENTER":"79.8488","OBJECT_NAME":"STARLINK-2495","BSTAR":"0.00038410000000","RA_OF_ASC_NODE":"35.8498","OBJECT_TYPE":"PAYLOAD","ECCENTRICITY":"0.00023090","EPHEMERIS_TYPE":"0","INCLINATION":"53.0552","REV_AT_EPOCH":"10102","MEAN_ANOMALY":"280.2762","PERIOD":"95.592","ELEMENT_SET_NO":"999","NORAD_CAT_ID":"48325","SEMIMAJOR_AXIS":"6925.318","MEAN_MOTION":"15.06409872","MEAN_MOTION_DOT":"0.00005446","MEAN_ELEMENT_THEORY":"SGP4","TIME_SYSTEM":"UTC","DECAY_DATE":null},{"ECCENTRICITY":"0.00013830","EPHEMERIS_TYPE":"0","RA_OF_ASC_NODE":"37.0569","OBJECT_TYPE":"PAYLOAD","BSTAR":"0.00129850000000","OBJECT_NAME":"STARLINK-2498","ARG_OF_PERICENTER":"94.4062","SITE":"AFETR","MEAN_MOTION_DDOT":"0.0000000000000","APOAPSIS":"548.050","TIME_SYSTEM":"UTC","DECAY_DATE":null,"MEAN_ELEMENT_THEORY":"SGP4","MEAN_MOTION_DOT":"0.00019133","MEAN_MOTION":"15.06439468","NORAD_CAT_ID":"48326","SEMIMAJOR_AXIS":"6925.228","ELEMENT_SET_NO":"999","PERIOD":"95.590","MEAN_ANOMALY":"265.7085","REV_AT_EPOCH":"10098","INCLINATION":"53.0553","RCS_SIZE":"LARGE","GP_ID":"226854990","LAUNCH_DATE":"2021-04-29","CENTER_NAME":"EARTH","OBJECT_ID":"2021-036BC","PERIAPSIS":"546.135","REF_FRAME":"TEME","TLE_LINE2":"2 48326  53.0553  37.0569 0001383  94.4062 265.7085 15.06439468100983","EPOCH":"2023-02-25T08:54:23.806368","COUNTRY_CODE":"US","TLE_LINE1":"1 48326U 21036BC  23056.37110887  .00019133  00000-0  12985-2 0  9990","CLASSIFICATION_TYPE":"U","FILE":"3837605"}];
